{
  "type": "FeatureCollection",
  "features": [
    {
      "type": "Feature",
      "properties": {
        "norad_id": 40730,
        "name": "GPS BIIF-10 (PRN 08)",
        "group": "gps-ops",
        "lat": 2.8363115095182883,
        "lon": -83.35537000395415,
        "alt_km": 19910.403505541162,
        "timestamp": "2025-12-16T17:51:11.190320+00:00",
        "meta_object_name": "GPS BIIF-10 (PRN 08)",
        "meta_object_id": "2015-033A",
        "meta_epoch": "2025-12-15T17:48:26.961408",
        "meta_mean_motion": 2.00565512,
        "meta_eccentricity": 0.01111562,
        "meta_inclination": 54.128,
        "meta_ra_of_asc_node": 274.6493,
        "meta_arg_of_pericenter": 26.8819,
        "meta_mean_anomaly": 333.7054,
        "meta_ephemeris_type": 0,
        "meta_classification_type": "U",
        "meta_norad_cat_id": 40730,
        "meta_element_set_no": 999,
        "meta_rev_at_epoch": 7631,
        "meta_bstar": 0,
        "meta_mean_motion_dot": -6.1e-07,
        "meta_mean_motion_ddot": 0,
        "tle_line1": "1 40730U 15033A   25349.74197872 -.00000061  00000+0  00000+0 0  9990",
        "tle_line2": "2 40730  54.1280 274.6493 0111156  26.8819 333.7054  2.00565512 76318"
      },
      "geometry": {
        "type": "Point",
        "coordinates": [
          -83.35537000395415,
          2.8363115095182883
        ]
      }
    },
    {
      "type": "Feature",
      "properties": {
        "norad_id": 41019,
        "name": "GPS BIIF-11 (PRN 10)",
        "group": "gps-ops",
        "lat": -31.915548127683223,
        "lon": 13.854111191835404,
        "alt_km": 20186.936507355505,
        "timestamp": "2025-12-16T17:51:11.190332+00:00",
        "meta_object_name": "GPS BIIF-11 (PRN 10)",
        "meta_object_id": "2015-062A",
        "meta_epoch": "2025-12-12T19:26:17.014560",
        "meta_mean_motion": 2.00567164,
        "meta_eccentricity": 0.01108438,
        "meta_inclination": 56.8322,
        "meta_ra_of_asc_node": 37.9995,
        "meta_arg_of_pericenter": 229.9503,
        "meta_mean_anomaly": 129.1214,
        "meta_ephemeris_type": 0,
        "meta_classification_type": "U",
        "meta_norad_cat_id": 41019,
        "meta_element_set_no": 999,
        "meta_rev_at_epoch": 7409,
        "meta_bstar": 0,
        "meta_mean_motion_dot": -9.6e-07,
        "meta_mean_motion_ddot": 0,
        "tle_line1": "1 41019U 15062A   25346.80991915 -.00000096  00000+0  00000+0 0  9995",
        "tle_line2": "2 41019  56.8322  37.9995 0110843 229.9503 129.1214  2.00567164 74093"
      },
      "geometry": {
        "type": "Point",
        "coordinates": [
          13.854111191835404,
          -31.915548127683223
        ]
      }
    },
    {
      "type": "Feature",
      "properties": {
        "norad_id": 41328,
        "name": "GPS BIIF-12 (PRN 32)",
        "group": "gps-ops",
        "lat": -54.2490512782907,
        "lon": -10.090893434883062,
        "alt_km": 19953.722012531623,
        "timestamp": "2025-12-16T17:51:11.190343+00:00",
        "meta_object_name": "GPS BIIF-12 (PRN 32)",
        "meta_object_id": "2016-007A",
        "meta_epoch": "2025-12-14T09:19:00.023808",
        "meta_mean_motion": 2.00560678,
        "meta_eccentricity": 0.00922324,
        "meta_inclination": 55.4071,
        "meta_ra_of_asc_node": 96.7915,
        "meta_arg_of_pericenter": 243.6085,
        "meta_mean_anomaly": 115.4276,
        "meta_ephemeris_type": 0,
        "meta_classification_type": "U",
        "meta_norad_cat_id": 41328,
        "meta_element_set_no": 999,
        "meta_rev_at_epoch": 7213,
        "meta_bstar": 0,
        "meta_mean_motion_dot": -2.9e-07,
        "meta_mean_motion_ddot": 0,
        "tle_line1": "1 41328U 16007A   25348.38819472 -.00000029  00000+0  00000+0 0  9996",
        "tle_line2": "2 41328  55.4071  96.7915 0092232 243.6085 115.4276  2.00560678 72138"
      },
      "geometry": {
        "type": "Point",
        "coordinates": [
          -10.090893434883062,
          -54.2490512782907
        ]
      }
    },
    {
      "type": "Feature",
      "properties": {
        "norad_id": 43873,
        "name": "GPS BIII-1  (PRN 04)",
        "group": "gps-ops",
        "lat": 20.99619927005638,
        "lon": -95.86464334788164,
        "alt_km": 20105.136376093255,
        "timestamp": "2025-12-16T17:51:11.190355+00:00",
        "meta_object_name": "GPS BIII-1  (PRN 04)",
        "meta_object_id": "2018-109A",
        "meta_epoch": "2025-12-15T18:29:34.483200",
        "meta_mean_motion": 2.00553802,
        "meta_eccentricity": 0.00374359,
        "meta_inclination": 55.5688,
        "meta_ra_of_asc_node": 99.4273,
        "meta_arg_of_pericenter": 195.145,
        "meta_mean_anomaly": 336.5518,
        "meta_ephemeris_type": 0,
        "meta_classification_type": "U",
        "meta_norad_cat_id": 43873,
        "meta_element_set_no": 999,
        "meta_rev_at_epoch": 5139,
        "meta_bstar": 0,
        "meta_mean_motion_dot": -3.2e-07,
        "meta_mean_motion_ddot": 0,
        "tle_line1": "1 43873U 18109A   25349.77053800 -.00000032  00000+0  00000+0 0  9991",
        "tle_line2": "2 43873  55.5688  99.4273 0037435 195.1450 336.5518  2.00553802 51399"
      },
      "geometry": {
        "type": "Point",
        "coordinates": [
          -95.86464334788164,
          20.99619927005638
        ]
      }
    },
    {
      "type": "Feature",
      "properties": {
        "norad_id": 44506,
        "name": "GPS BIII-2  (PRN 18)",
        "group": "gps-ops",
        "lat": 40.110086789821004,
        "lon": 13.453967249784492,
        "alt_km": 20305.58591107924,
        "timestamp": "2025-12-16T17:51:11.190366+00:00",
        "meta_object_name": "GPS BIII-2  (PRN 18)",
        "meta_object_id": "2019-056A",
        "meta_epoch": "2025-12-15T09:56:28.644288",
        "meta_mean_motion": 2.00566523,
        "meta_eccentricity": 0.00577123,
        "meta_inclination": 55.7205,
        "meta_ra_of_asc_node": 338.4461,
        "meta_arg_of_pericenter": 198.4931,
        "meta_mean_anomaly": 333.0203,
        "meta_ephemeris_type": 0,
        "meta_classification_type": "U",
        "meta_norad_cat_id": 44506,
        "meta_element_set_no": 999,
        "meta_rev_at_epoch": 4638,
        "meta_bstar": 0,
        "meta_mean_motion_dot": -8.9e-07,
        "meta_mean_motion_ddot": 0,
        "tle_line1": "1 44506U 19056A   25349.41422042 -.00000089  00000+0  00000+0 0  9998",
        "tle_line2": "2 44506  55.7205 338.4461 0057712 198.4931 333.0203  2.00566523 46385"
      },
      "geometry": {
        "type": "Point",
        "coordinates": [
          13.453967249784492,
          40.110086789821004
        ]
      }
    },
    {
      "type": "Feature",
      "properties": {
        "norad_id": 45854,
        "name": "GPS BIII-3  (PRN 23)",
        "group": "gps-ops",
        "lat": -3.4414052205341266,
        "lon": 33.77183119918702,
        "alt_km": 20325.448266737483,
        "timestamp": "2025-12-16T17:51:11.190379+00:00",
        "meta_object_name": "GPS BIII-3  (PRN 23)",
        "meta_object_id": "2020-041A",
        "meta_epoch": "2025-12-15T00:47:17.642112",
        "meta_mean_motion": 2.00562009,
        "meta_eccentricity": 0.00605565,
        "meta_inclination": 56.5486,
        "meta_ra_of_asc_node": 36.096,
        "meta_arg_of_pericenter": 203.5023,
        "meta_mean_anomaly": 356.6699,
        "meta_ephemeris_type": 0,
        "meta_classification_type": "U",
        "meta_norad_cat_id": 45854,
        "meta_element_set_no": 999,
        "meta_rev_at_epoch": 4034,
        "meta_bstar": 0,
        "meta_mean_motion_dot": -9.1e-07,
        "meta_mean_motion_ddot": 0,
        "tle_line1": "1 45854U 20041A   25349.03284308 -.00000091  00000+0  00000+0 0  9993",
        "tle_line2": "2 45854  56.5486  36.0960 0060556 203.5023 356.6699  2.00562009 40342"
      },
      "geometry": {
        "type": "Point",
        "coordinates": [
          33.77183119918702,
          -3.4414052205341266
        ]
      }
    },
    {
      "type": "Feature",
      "properties": {
        "norad_id": 46826,
        "name": "GPS BIII-4  (PRN 14)",
        "group": "gps-ops",
        "lat": -25.975452520714725,
        "lon": -162.5315282727878,
        "alt_km": 20280.219924596815,
        "timestamp": "2025-12-16T17:51:11.190398+00:00",
        "meta_object_name": "GPS BIII-4  (PRN 14)",
        "meta_object_id": "2020-078A",
        "meta_epoch": "2025-12-15T00:45:28.777248",
        "meta_mean_motion": 2.00566873,
        "meta_eccentricity": 0.00647232,
        "meta_inclination": 54.0146,
        "meta_ra_of_asc_node": 218.2479,
        "meta_arg_of_pericenter": 203.3837,
        "meta_mean_anomaly": 326.9194,
        "meta_ephemeris_type": 0,
        "meta_classification_type": "U",
        "meta_norad_cat_id": 46826,
        "meta_element_set_no": 999,
        "meta_rev_at_epoch": 3781,
        "meta_bstar": 0,
        "meta_mean_motion_dot": 5.5e-07,
        "meta_mean_motion_ddot": 0,
        "tle_line1": "1 46826U 20078A   25349.03158307  .00000055  00000+0  00000+0 0  9991",
        "tle_line2": "2 46826  54.0146 218.2479 0064723 203.3837 326.9194  2.00566873 37819"
      },
      "geometry": {
        "type": "Point",
        "coordinates": [
          -162.5315282727878,
          -25.975452520714725
        ]
      }
    }
  ]
}